{
  "type": "FeatureCollection",
  "features": [
    {
      "type": "Feature",
      "properties": {
        "norad_id": 30469,
        "name": "FENGYUN 1C DEB",
        "group": "fengyun-1c-debris",
        "lat": -71.74790064298239,
        "lon": -11.398996343333419,
        "alt_km": 887.5331953763953,
        "timestamp": "2025-12-10T14:53:37.368614+00:00",
        "meta_object_name": "FENGYUN 1C DEB",
        "meta_object_id": "1999-025AGG",
        "meta_epoch": "2025-12-09T12:12:00.791136",
        "meta_mean_motion": 13.96499545,
        "meta_eccentricity": 0.01586051,
        "meta_inclination": 98.4781,
        "meta_ra_of_asc_node": 194.4647,
        "meta_arg_of_pericenter": 178.7938,
        "meta_mean_anomaly": 244.6539,
        "meta_ephemeris_type": 0,
        "meta_classification_type": "U",
        "meta_norad_cat_id": 30469,
        "meta_element_set_no": 999,
        "meta_rev_at_epoch": 95661,
        "meta_bstar": 0.0011792313,
        "meta_mean_motion_dot": 1.773e-05,
        "meta_mean_motion_ddot": 0,
        "tle_line1": "1 30469U 99025AGG 25343.50834249  .00001773  00000+0  11792-2 0  9998",
        "tle_line2": "2 30469  98.4781 194.4647 0158605 178.7938 244.6539 13.96499545956619"
      },
      "geometry": {
        "type": "Point",
        "coordinates": [
          -11.398996343333419,
          -71.74790064298239
        ]
      }
    },
    {
      "type": "Feature",
      "properties": {
        "norad_id": 30471,
        "name": "FENGYUN 1C DEB",
        "group": "fengyun-1c-debris",
        "lat": -33.86063617938429,
        "lon": -113.94723980734861,
        "alt_km": 811.0393692667794,
        "timestamp": "2025-12-10T14:53:37.368623+00:00",
        "meta_object_name": "FENGYUN 1C DEB",
        "meta_object_id": "1999-025AGJ",
        "meta_epoch": "2025-12-10T05:30:28.613376",
        "meta_mean_motion": 14.1360025,
        "meta_eccentricity": 0.00822306,
        "meta_inclination": 99.0537,
        "meta_ra_of_asc_node": 71.7985,
        "meta_arg_of_pericenter": 260.5079,
        "meta_mean_anomaly": 125.3449,
        "meta_ephemeris_type": 0,
        "meta_classification_type": "U",
        "meta_norad_cat_id": 30471,
        "meta_element_set_no": 999,
        "meta_rev_at_epoch": 96407,
        "meta_bstar": 0.0025883288,
        "meta_mean_motion_dot": 4.997e-05,
        "meta_mean_motion_ddot": 0,
        "tle_line1": "1 30471U 99025AGJ 25344.22949784  .00004997  00000+0  25883-2 0  9999",
        "tle_line2": "2 30471  99.0537  71.7985 0082230 260.5079 125.3449 14.13600250964077"
      },
      "geometry": {
        "type": "Point",
        "coordinates": [
          -113.94723980734861,
          -33.86063617938429
        ]
      }
    },
    {
      "type": "Feature",
      "properties": {
        "norad_id": 30472,
        "name": "FENGYUN 1C DEB",
        "group": "fengyun-1c-debris",
        "lat": 15.393274682580943,
        "lon": 83.25603077480979,
        "alt_km": 704.9952684429782,
        "timestamp": "2025-12-10T14:53:37.368632+00:00",
        "meta_object_name": "FENGYUN 1C DEB",
        "meta_object_id": "1999-025AGK",
        "meta_epoch": "2025-12-10T05:12:28.995264",
        "meta_mean_motion": 14.53709022,
        "meta_eccentricity": 0.00384054,
        "meta_inclination": 98.6514,
        "meta_ra_of_asc_node": 85.2418,
        "meta_arg_of_pericenter": 87.2025,
        "meta_mean_anomaly": 338.0997,
        "meta_ephemeris_type": 0,
        "meta_classification_type": "U",
        "meta_norad_cat_id": 30472,
        "meta_element_set_no": 999,
        "meta_rev_at_epoch": 98004,
        "meta_bstar": 0.0037412046,
        "meta_mean_motion_dot": 0.00015811,
        "meta_mean_motion_ddot": 0,
        "tle_line1": "1 30472U 99025AGK 25344.21700226  .00015811  00000+0  37412-2 0  9993",
        "tle_line2": "2 30472  98.6514  85.2418 0038405  87.2025 338.0997 14.53709022980046"
      },
      "geometry": {
        "type": "Point",
        "coordinates": [
          83.25603077480979,
          15.393274682580943
        ]
      }
    },
    {
      "type": "Feature",
      "properties": {
        "norad_id": 30474,
        "name": "FENGYUN 1C DEB",
        "group": "fengyun-1c-debris",
        "lat": 13.507688798201613,
        "lon": 61.2579290446509,
        "alt_km": 750.7534333589483,
        "timestamp": "2025-12-10T14:53:37.368640+00:00",
        "meta_object_name": "FENGYUN 1C DEB",
        "meta_object_id": "1999-025AGM",
        "meta_epoch": "2025-12-10T05:03:52.634304",
        "meta_mean_motion": 14.37706109,
        "meta_eccentricity": 0.00228816,
        "meta_inclination": 98.9284,
        "meta_ra_of_asc_node": 62.997,
        "meta_arg_of_pericenter": 11.748,
        "meta_mean_anomaly": 43.5249,
        "meta_ephemeris_type": 0,
        "meta_classification_type": "U",
        "meta_norad_cat_id": 30474,
        "meta_element_set_no": 999,
        "meta_rev_at_epoch": 97357,
        "meta_bstar": 0.0032738625,
        "meta_mean_motion_dot": 9.84e-05,
        "meta_mean_motion_ddot": 0,
        "tle_line1": "1 30474U 99025AGM 25344.21102586  .00009840  00000+0  32739-2 0  9992",
        "tle_line2": "2 30474  98.9284  62.9970 0022881  11.7480  43.5249 14.37706109973571"
      },
      "geometry": {
        "type": "Point",
        "coordinates": [
          61.2579290446509,
          13.507688798201613
        ]
      }
    },
    {
      "type": "Feature",
      "properties": {
        "norad_id": 30475,
        "name": "FENGYUN 1C DEB",
        "group": "fengyun-1c-debris",
        "lat": -64.20219969531058,
        "lon": -172.48945875276002,
        "alt_km": 828.0573673811214,
        "timestamp": "2025-12-10T14:53:37.368650+00:00",
        "meta_object_name": "FENGYUN 1C DEB",
        "meta_object_id": "1999-025AGN",
        "meta_epoch": "2025-12-10T02:07:10.828992",
        "meta_mean_motion": 14.15666607,
        "meta_eccentricity": 0.00422707,
        "meta_inclination": 98.7875,
        "meta_ra_of_asc_node": 25.6493,
        "meta_arg_of_pericenter": 298.4214,
        "meta_mean_anomaly": 116.5025,
        "meta_ephemeris_type": 0,
        "meta_classification_type": "U",
        "meta_norad_cat_id": 30475,
        "meta_element_set_no": 999,
        "meta_rev_at_epoch": 96914,
        "meta_bstar": 0.0010456032,
        "meta_mean_motion_dot": 2.023e-05,
        "meta_mean_motion_ddot": 0,
        "tle_line1": "1 30475U 99025AGN 25344.08831978  .00002023  00000+0  10456-2 0  9990",
        "tle_line2": "2 30475  98.7875  25.6493 0042270 298.4214 116.5025 14.15666607969140"
      },
      "geometry": {
        "type": "Point",
        "coordinates": [
          -172.48945875276002,
          -64.20219969531058
        ]
      }
    },
    {
      "type": "Feature",
      "properties": {
        "norad_id": 30476,
        "name": "FENGYUN 1C DEB",
        "group": "fengyun-1c-debris",
        "lat": -35.56221607720061,
        "lon": 28.3443379914623,
        "alt_km": 797.8615531800097,
        "timestamp": "2025-12-10T14:53:37.368659+00:00",
        "meta_object_name": "FENGYUN 1C DEB",
        "meta_object_id": "1999-025AGP",
        "meta_epoch": "2025-12-10T01:40:42.024576",
        "meta_mean_motion": 14.2088418,
        "meta_eccentricity": 0.00448908,
        "meta_inclination": 99.1247,
        "meta_ra_of_asc_node": 21.178,
        "meta_arg_of_pericenter": 307.2881,
        "meta_mean_anomaly": 81.4993,
        "meta_ephemeris_type": 0,
        "meta_classification_type": "U",
        "meta_norad_cat_id": 30476,
        "meta_element_set_no": 999,
        "meta_rev_at_epoch": 96807,
        "meta_bstar": 0.0018300379,
        "meta_mean_motion_dot": 3.953e-05,
        "meta_mean_motion_ddot": 0,
        "tle_line1": "1 30476U 99025AGP 25344.06993084  .00003953  00000+0  18300-2 0  9995",
        "tle_line2": "2 30476  99.1247  21.1780 0044890 307.2881  81.4993 14.20884180968077"
      },
      "geometry": {
        "type": "Point",
        "coordinates": [
          28.3443379914623,
          -35.56221607720061
        ]
      }
    },
    {
      "type": "Feature",
      "properties": {
        "norad_id": 30477,
        "name": "FENGYUN 1C DEB",
        "group": "fengyun-1c-debris",
        "lat": -4.025123544658768,
        "lon": 68.52127400470701,
        "alt_km": 1070.3204955323854,
        "timestamp": "2025-12-10T14:53:37.368668+00:00",
        "meta_object_name": "FENGYUN 1C DEB",
        "meta_object_id": "1999-025AGQ",
        "meta_epoch": "2025-12-10T04:11:10.801248",
        "meta_mean_motion": 13.238044,
        "meta_eccentricity": 0.04325839,
        "meta_inclination": 99.4255,
        "meta_ra_of_asc_node": 67.4469,
        "meta_arg_of_pericenter": 283.1515,
        "meta_mean_anomaly": 103.0596,
        "meta_ephemeris_type": 0,
        "meta_classification_type": "U",
        "meta_norad_cat_id": 30477,
        "meta_element_set_no": 999,
        "meta_rev_at_epoch": 90685,
        "meta_bstar": 0.0037473953,
        "meta_mean_motion_dot": 2.585e-05,
        "meta_mean_motion_ddot": 0,
        "tle_line1": "1 30477U 99025AGQ 25344.17443057  .00002585  00000+0  37474-2 0  9991",
        "tle_line2": "2 30477  99.4255  67.4469 0432583 283.1515 103.0596 13.23804400906850"
      },
      "geometry": {
        "type": "Point",
        "coordinates": [
          68.52127400470701,
          -4.025123544658768
        ]
      }
    }
  ]
}